{
  "type": "FeatureCollection",
  "features": [
    {
      "type": "Feature",
      "geometry": {
        "geodesic": false,
        "type": "Polygon",
        "coordinates": [
          [
            [
              134.94505965371528,
              -19.51947319496261
            ],
            [
              135.33675792741386,
              -19.51947319496261
            ],
            [
              135.33675792741386,
              -19.312206535783748
            ],
            [
              134.94505965371528,
              -19.312206535783748
            ],
            [
              134.94505965371528,
              -19.51947319496261
            ]
          ]
        ]
      },
      "id": "+34191+12177",
      "properties": {
        "area": 946724758.6779084,
        "count": 232,
        "label": 1
      }
    }
  ]
}