{
  "type": "FeatureCollection",
  "features": [
    {
      "type": "Feature",
      "geometry": {
        "geodesic": false,
        "type": "Polygon",
        "coordinates": [
          [
            [
              -121.74004511480537,
              36.18465197116211
            ],
            [
              -121.65352237994524,
              36.18465197116211
            ],
            [
              -121.65352237994524,
              36.21163914873112
            ],
            [
              -121.74004511480537,
              36.21163914873112
            ],
            [
              -121.74004511480537,
              36.18465197116211
            ]
          ]
        ]
      },
      "id": "+9095+5983",
      "properties": {
        "count": 10,
        "label": 1
      }
    },
    {
      "type": "Feature",
      "geometry": {
        "geodesic": false,
        "type": "Polygon",
        "coordinates": [
          [
            [
              -121.74030312448319,
              36.22062479322008
            ],
            [
              -121.6759995034466,
              36.22062479322008
            ],
            [
              -121.6759995034466,
              36.247611974053896
            ],
            [
              -121.74030312448319,
              36.247611974053896
            ],
            [
              -121.74030312448319,
              36.22062479322008
            ]
          ]
        ]
      },
      "id": "+9099+5979",
      "properties": {
        "count": 6,
        "label": 1
      }
    },
    {
      "type": "Feature",
      "geometry": {
        "geodesic": false,
        "type": "Polygon",
        "coordinates": [
          [
            [
              -123.69518561310642,
              41.07695571883395
            ],
            [
              -123.59667359911236,
              41.07695571883395
            ],
            [
              -123.59667359911236,
              41.10394344484129
            ],
            [
              -123.69518561310642,
              41.10394344484129
            ],
            [
              -123.69518561310642,
              41.07695571883395
            ]
          ]
        ]
      },
      "id": "+9654+5439",
      "properties": {
        "count": 12,
        "label": 1
      }
    },
    {
      "type": "Feature",
      "geometry": {
        "geodesic": false,
        "type": "Polygon",
        "coordinates": [
          [
            [
              -123.73032836652331,
              41.1309117944784
            ],
            [
              -123.56692928380593,
              41.1309117944784
            ],
            [
              -123.56692928380593,
              41.16689904619055
            ],
            [
              -123.73032836652331,
              41.16689904619055
            ],
            [
              -123.73032836652331,
              41.1309117944784
            ]
          ]
        ]
      },
      "id": "+9665+5433",
      "properties": {
        "count": 20,
        "label": 1
      }
    }
  ]
}