{
  "type": "FeatureCollection",
  "features": [
    {
      "type": "Feature",
      "geometry": {
        "geodesic": false,
        "type": "Polygon",
        "coordinates": [
          [
            [
              138.29489910961595,
              -19.10587017404143
            ],
            [
              138.8018219852845,
              -19.10587017404143
            ],
            [
              138.8018219852845,
              -18.862461788135924
            ],
            [
              138.29489910961595,
              -18.862461788135924
            ],
            [
              138.29489910961595,
              -19.10587017404143
            ]
          ]
        ]
      },
      "id": "+34575+12131",
      "properties": {
        "area": 1442644841.8477206,
        "count": 284,
        "label": 1
      }
    }
  ]
}