{
  "type": "FeatureCollection",
  "features": [
    {
      "type": "Feature",
      "geometry": {
        "geodesic": false,
        "type": "Polygon",
        "coordinates": [
          [
            [
              138.29489910961595,
              -19.10587017404143
            ],
            [
              138.8018219852845,
              -19.10587017404143
            ],
            [
              138.8018219852845,
              -18.862461788135924
            ],
            [
              138.29489910961595,
              -18.862461788135924
            ],
            [
              138.29489910961595,
              -19.10587017404143
            ]
          ]
        ]
      },
      "properties": {
        "area": 1442644841.848118,
        "count": 284,
        "label": 1,
        "rank": 1,
        "date": "2026-09-21"
      }
    },
    {
      "type": "Feature",
      "geometry": {
        "geodesic": false,
        "type": "Polygon",
        "coordinates": [
          [
            [
              142.8153217454266,
              -13.547823987071261
            ],
            [
              143.05963925435557,
              -13.547823987071261
            ],
            [
              143.05963925435557,
              -13.448796749541719
            ],
            [
              142.8153217454266,
              -13.448796749541719
            ],
            [
              142.8153217454266,
              -13.547823987071261
            ]
          ]
        ]
      },
      "properties": {
        "area": 290880595.58825696,
        "count": 95,
        "label": 1,
        "rank": 2,
        "date": "2026-09-21"
      }
    },
    {
      "type": "Feature",
      "geometry": {
        "geodesic": false,
        "type": "Polygon",
        "coordinates": [
          [
            [
              151.6755750880384,
              -28.97116363691551
            ],
            [
              151.9614748177872,
              -28.97116363691551
            ],
            [
              151.9614748177872,
              -28.881146620116642
            ],
            [
              151.6755750880384,
              -28.881146620116642
            ],
            [
              151.6755750880384,
              -28.97116363691551
            ]
          ]
        ]
      },
      "properties": {
        "area": 278508399.8970373,
        "count": 67,
        "label": 1,
        "rank": 3,
        "date": "2026-09-21"
      }
    },
    {
      "type": "Feature",
      "geometry": {
        "geodesic": false,
        "type": "Polygon",
        "coordinates": [
          [
            [
              135.85966371878717,
              -17.046178796958593
            ],
            [
              136.07257743448372,
              -17.046178796958593
            ],
            [
              136.07257743448372,
              -16.947156147432324
            ],
            [
              135.85966371878717,
              -16.947156147432324
            ],
            [
              135.85966371878717,
              -17.046178796958593
            ]
          ]
        ]
      },
      "properties": {
        "area": 249294738.63123885,
        "count": 46,
        "label": 1,
        "rank": 4,
        "date": "2026-09-21"
      }
    },
    {
      "type": "Feature",
      "geometry": {
        "geodesic": false,
        "type": "Polygon",
        "coordinates": [
          [
            [
              143.02797722137322,
              -13.565830664618638
            ],
            [
              143.18150449148118,
              -13.565830664618638
            ],
            [
              143.18150449148118,
              -13.448776483839522
            ],
            [
              143.02797722137322,
              -13.448776483839522
            ],
            [
              143.02797722137322,
              -13.565830664618638
            ]
          ]
        ]
      },
      "properties": {
        "area": 216053637.22465166,
        "count": 47,
        "label": 1,
        "rank": 5,
        "date": "2026-09-21"
      }
    },
    {
      "type": "Feature",
      "geometry": {
        "geodesic": false,
        "type": "Polygon",
        "coordinates": [
          [
            [
              151.68630387318558,
              -28.782284637629967
            ],
            [
              151.9522448274611,
              -28.782284637629967
            ],
            [
              151.9522448274611,
              -28.719290588421032
            ],
            [
              151.68630387318558,
              -28.719290588421032
            ],
            [
              151.68630387318558,
              -28.782284637629967
            ]
          ]
        ]
      },
      "properties": {
        "area": 181600337.2348799,
        "count": 70,
        "label": 1,
        "rank": 6,
        "date": "2026-09-21"
      }
    },
    {
      "type": "Feature",
      "geometry": {
        "geodesic": false,
        "type": "Polygon",
        "coordinates": [
          [
            [
              142.54475885718307,
              -12.081931654302265
            ],
            [
              142.67090500949092,
              -12.081931654302265
            ],
            [
              142.67090500949092,
              -11.982903951545138
            ],
            [
              142.54475885718307,
              -11.982903951545138
            ],
            [
              142.54475885718307,
              -12.081931654302265
            ]
          ]
        ]
      },
      "properties": {
        "area": 151061472.0598231,
        "count": 36,
        "label": 1,
        "rank": 7,
        "date": "2026-09-21"
      }
    },
    {
      "type": "Feature",
      "geometry": {
        "geodesic": false,
        "type": "Polygon",
        "coordinates": [
          [
            [
              152.40046963795845,
              -29.025101241868008
            ],
            [
              152.61675131058868,
              -29.025101241868008
            ],
            [
              152.61675131058868,
              -28.962107104003042
            ],
            [
              152.40046963795845,
              -28.962107104003042
            ],
            [
              152.40046963795845,
              -29.025101241868008
            ]
          ]
        ]
      },
      "properties": {
        "area": 147345506.49734643,
        "count": 44,
        "label": 1,
        "rank": 8,
        "date": "2026-09-21"
      }
    },
    {
      "type": "Feature",
      "geometry": {
        "geodesic": false,
        "type": "Polygon",
        "coordinates": [
          [
            [
              138.6451163741875,
              -17.441851124728156
            ],
            [
              138.83433248335177,
              -17.441851124728156
            ],
            [
              138.83433248335177,
              -17.378858764541373
            ],
            [
              138.6451163741875,
              -17.378858764541373
            ],
            [
              138.6451163741875,
              -17.441851124728156
            ]
          ]
        ]
      },
      "properties": {
        "area": 140620964.1478999,
        "count": 60,
        "label": 1,
        "rank": 9,
        "date": "2026-09-21"
      }
    },
    {
      "type": "Feature",
      "geometry": {
        "geodesic": false,
        "type": "Polygon",
        "coordinates": [
          [
            [
              151.12234727642144,
              -29.870462605769333
            ],
            [
              151.32137181680957,
              -29.870462605769333
            ],
            [
              151.32137181680957,
              -29.80746845354935
            ],
            [
              151.12234727642144,
              -29.80746845354935
            ],
            [
              151.12234727642144,
              -29.870462605769333
            ]
          ]
        ]
      },
      "properties": {
        "area": 134465492.58183503,
        "count": 45,
        "label": 1,
        "rank": 10,
        "date": "2026-09-21"
      }
    }
  ]
}