{
  "type": "FeatureCollection",
  "features": [
    {
      "type": "Feature",
      "geometry": {
        "geodesic": false,
        "type": "Polygon",
        "coordinates": [
          [
            [
              -123.73032836652331,
              41.1309117944784
            ],
            [
              -123.56692928380593,
              41.1309117944784
            ],
            [
              -123.56692928380593,
              41.16689904619055
            ],
            [
              -123.73032836652331,
              41.16689904619055
            ],
            [
              -123.73032836652331,
              41.1309117944784
            ]
          ]
        ]
      },
      "properties": {
        "area": 54747632.31989017,
        "count": 20,
        "label": 1,
        "rank": 1,
        "date": "2026-08-15"
      }
    },
    {
      "type": "Feature",
      "geometry": {
        "geodesic": false,
        "type": "Polygon",
        "coordinates": [
          [
            [
              -123.69518561310642,
              41.07695571883395
            ],
            [
              -123.59667359911236,
              41.07695571883395
            ],
            [
              -123.59667359911236,
              41.10394344484129
            ],
            [
              -123.69518561310642,
              41.10394344484129
            ],
            [
              -123.69518561310642,
              41.07695571883395
            ]
          ]
        ]
      },
      "properties": {
        "area": 24774753.106484592,
        "count": 12,
        "label": 1,
        "rank": 2,
        "date": "2026-08-15"
      }
    },
    {
      "type": "Feature",
      "geometry": {
        "geodesic": false,
        "type": "Polygon",
        "coordinates": [
          [
            [
              -121.74004511480537,
              36.18465197116211
            ],
            [
              -121.65352237994524,
              36.18465197116211
            ],
            [
              -121.65352237994524,
              36.21163914873112
            ],
            [
              -121.74004511480537,
              36.21163914873112
            ],
            [
              -121.74004511480537,
              36.18465197116211
            ]
          ]
        ]
      },
      "properties": {
        "area": 23298131.25402737,
        "count": 10,
        "label": 1,
        "rank": 3,
        "date": "2026-08-15"
      }
    },
    {
      "type": "Feature",
      "geometry": {
        "geodesic": false,
        "type": "Polygon",
        "coordinates": [
          [
            [
              -121.74030312448319,
              36.22062479322008
            ],
            [
              -121.6759995034466,
              36.22062479322008
            ],
            [
              -121.6759995034466,
              36.247611974053896
            ],
            [
              -121.74030312448319,
              36.247611974053896
            ],
            [
              -121.74030312448319,
              36.22062479322008
            ]
          ]
        ]
      },
      "properties": {
        "area": 17307193.45915383,
        "count": 6,
        "label": 1,
        "rank": 4,
        "date": "2026-08-15"
      }
    }
  ]
}