{
  "type": "FeatureCollection",
  "features": [
    {
      "type": "Feature",
      "geometry": {
        "geodesic": false,
        "type": "Polygon",
        "coordinates": [
          [
            [
              152.40046963795845,
              -29.025101241868008
            ],
            [
              152.61675131058868,
              -29.025101241868008
            ],
            [
              152.61675131058868,
              -28.962107104003042
            ],
            [
              152.40046963795845,
              -28.962107104003042
            ],
            [
              152.40046963795845,
              -29.025101241868008
            ]
          ]
        ]
      },
      "properties": {
        "area": 147345506.49734643,
        "count": 44,
        "label": 1,
        "rank": 8,
        "date": "2026-09-21"
      }
    }
  ]
}