{
  "type": "FeatureCollection",
  "features": [
    {
      "type": "Feature",
      "geometry": {
        "geodesic": false,
        "type": "Polygon",
        "coordinates": [
          [
            [
              151.68630387318558,
              -28.782284637629967
            ],
            [
              151.9522448274611,
              -28.782284637629967
            ],
            [
              151.9522448274611,
              -28.719290588421032
            ],
            [
              151.68630387318558,
              -28.719290588421032
            ],
            [
              151.68630387318558,
              -28.782284637629967
            ]
          ]
        ]
      },
      "properties": {
        "area": 181600337.2348799,
        "count": 70,
        "label": 1,
        "rank": 6,
        "date": "2026-09-21"
      }
    }
  ]
}