{
  "type": "FeatureCollection",
  "features": [
    {
      "type": "Feature",
      "geometry": {
        "geodesic": false,
        "type": "Polygon",
        "coordinates": [
          [
            [
              135.85966371878717,
              -17.046178796958593
            ],
            [
              136.07257743448372,
              -17.046178796958593
            ],
            [
              136.07257743448372,
              -16.947156147432324
            ],
            [
              135.85966371878717,
              -16.947156147432324
            ],
            [
              135.85966371878717,
              -17.046178796958593
            ]
          ]
        ]
      },
      "properties": {
        "area": 249294738.63123885,
        "count": 46,
        "label": 1,
        "rank": 4,
        "date": "2026-09-21"
      }
    }
  ]
}