{
  "type": "FeatureCollection",
  "features": [
    {
      "type": "Feature",
      "geometry": {
        "geodesic": false,
        "type": "Polygon",
        "coordinates": [
          [
            [
              142.8153217454266,
              -13.547823987071261
            ],
            [
              143.05963925435557,
              -13.547823987071261
            ],
            [
              143.05963925435557,
              -13.448796749541719
            ],
            [
              142.8153217454266,
              -13.448796749541719
            ],
            [
              142.8153217454266,
              -13.547823987071261
            ]
          ]
        ]
      },
      "properties": {
        "area": 290880595.58825696,
        "count": 95,
        "label": 1,
        "rank": 2,
        "date": "2026-09-21"
      }
    }
  ]
}