{
  "type": "FeatureCollection",
  "features": [
    {
      "type": "Feature",
      "geometry": {
        "geodesic": false,
        "type": "Polygon",
        "coordinates": [
          [
            [
              138.6451163741875,
              -17.441851124728156
            ],
            [
              138.83433248335177,
              -17.441851124728156
            ],
            [
              138.83433248335177,
              -17.378858764541373
            ],
            [
              138.6451163741875,
              -17.378858764541373
            ],
            [
              138.6451163741875,
              -17.441851124728156
            ]
          ]
        ]
      },
      "properties": {
        "area": 140620964.1478999,
        "count": 60,
        "label": 1,
        "rank": 9,
        "date": "2026-09-21"
      }
    }
  ]
}