{
  "type": "FeatureCollection",
  "features": [
    {
      "type": "Feature",
      "geometry": {
        "geodesic": false,
        "type": "Polygon",
        "coordinates": [
          [
            [
              151.12234727642144,
              -29.870462605769333
            ],
            [
              151.32137181680957,
              -29.870462605769333
            ],
            [
              151.32137181680957,
              -29.80746845354935
            ],
            [
              151.12234727642144,
              -29.80746845354935
            ],
            [
              151.12234727642144,
              -29.870462605769333
            ]
          ]
        ]
      },
      "properties": {
        "area": 134465492.58183503,
        "count": 45,
        "label": 1,
        "rank": 10,
        "date": "2026-09-21"
      }
    }
  ]
}