{
  "type": "FeatureCollection",
  "features": [
    {
      "type": "Feature",
      "geometry": {
        "geodesic": false,
        "type": "Polygon",
        "coordinates": [
          [
            [
              143.02797722137322,
              -13.565830664618638
            ],
            [
              143.18150449148118,
              -13.565830664618638
            ],
            [
              143.18150449148118,
              -13.448776483839522
            ],
            [
              143.02797722137322,
              -13.448776483839522
            ],
            [
              143.02797722137322,
              -13.565830664618638
            ]
          ]
        ]
      },
      "properties": {
        "area": 216053637.22465166,
        "count": 47,
        "label": 1,
        "rank": 5,
        "date": "2026-09-21"
      }
    }
  ]
}