{
  "type": "FeatureCollection",
  "features": [
    {
      "type": "Feature",
      "geometry": {
        "geodesic": false,
        "type": "Polygon",
        "coordinates": [
          [
            [
              151.6755750880384,
              -28.97116363691551
            ],
            [
              151.9614748177872,
              -28.97116363691551
            ],
            [
              151.9614748177872,
              -28.881146620116642
            ],
            [
              151.6755750880384,
              -28.881146620116642
            ],
            [
              151.6755750880384,
              -28.97116363691551
            ]
          ]
        ]
      },
      "properties": {
        "area": 278508399.8970373,
        "count": 67,
        "label": 1,
        "rank": 3,
        "date": "2026-09-21"
      }
    }
  ]
}