{
  "type": "FeatureCollection",
  "features": [
    {
      "type": "Feature",
      "geometry": {
        "geodesic": false,
        "type": "Polygon",
        "coordinates": [
          [
            [
              142.54475885718307,
              -12.081931654302265
            ],
            [
              142.67090500949092,
              -12.081931654302265
            ],
            [
              142.67090500949092,
              -11.982903951545138
            ],
            [
              142.54475885718307,
              -11.982903951545138
            ],
            [
              142.54475885718307,
              -12.081931654302265
            ]
          ]
        ]
      },
      "properties": {
        "area": 151061472.0598231,
        "count": 36,
        "label": 1,
        "rank": 7,
        "date": "2026-09-21"
      }
    }
  ]
}