{
  "type": "FeatureCollection",
  "features": [
    {
      "type": "Feature",
      "geometry": {
        "geodesic": false,
        "type": "Polygon",
        "coordinates": [
          [
            [
              -121.74030312448319,
              36.22062479322008
            ],
            [
              -121.6759995034466,
              36.22062479322008
            ],
            [
              -121.6759995034466,
              36.247611974053896
            ],
            [
              -121.74030312448319,
              36.247611974053896
            ],
            [
              -121.74030312448319,
              36.22062479322008
            ]
          ]
        ]
      },
      "properties": {
        "area": 17307193.45915383,
        "count": 6,
        "label": 1,
        "rank": 4,
        "date": "2026-08-15"
      }
    }
  ]
}