{
  "type": "FeatureCollection",
  "features": [
    {
      "type": "Feature",
      "geometry": {
        "geodesic": false,
        "type": "Polygon",
        "coordinates": [
          [
            [
              -121.74004511480537,
              36.18465197116211
            ],
            [
              -121.65352237994524,
              36.18465197116211
            ],
            [
              -121.65352237994524,
              36.21163914873112
            ],
            [
              -121.74004511480537,
              36.21163914873112
            ],
            [
              -121.74004511480537,
              36.18465197116211
            ]
          ]
        ]
      },
      "properties": {
        "area": 23298131.25402737,
        "count": 10,
        "label": 1,
        "rank": 3,
        "date": "2026-08-15"
      }
    }
  ]
}