{
  "type": "FeatureCollection",
  "features": [
    {
      "type": "Feature",
      "geometry": {
        "geodesic": false,
        "type": "Polygon",
        "coordinates": [
          [
            [
              -123.69518561310642,
              41.07695571883395
            ],
            [
              -123.59667359911236,
              41.07695571883395
            ],
            [
              -123.59667359911236,
              41.10394344484129
            ],
            [
              -123.69518561310642,
              41.10394344484129
            ],
            [
              -123.69518561310642,
              41.07695571883395
            ]
          ]
        ]
      },
      "properties": {
        "area": 24774753.106484592,
        "count": 12,
        "label": 1,
        "rank": 2,
        "date": "2026-08-15"
      }
    }
  ]
}