{
  "type": "FeatureCollection",
  "features": [
    {
      "type": "Feature",
      "geometry": {
        "geodesic": false,
        "type": "Polygon",
        "coordinates": [
          [
            [
              -123.73032836652331,
              41.1309117944784
            ],
            [
              -123.56692928380593,
              41.1309117944784
            ],
            [
              -123.56692928380593,
              41.16689904619055
            ],
            [
              -123.73032836652331,
              41.16689904619055
            ],
            [
              -123.73032836652331,
              41.1309117944784
            ]
          ]
        ]
      },
      "properties": {
        "area": 54747632.31989017,
        "count": 20,
        "label": 1,
        "rank": 1,
        "date": "2026-08-15"
      }
    }
  ]
}